OBJECT_NAME,OBJECT_ID,EPOCH,MEAN_MOTION,ECCENTRICITY,INCLINATION,RA_OF_ASC_NODE,ARG_OF_PERICENTER,MEAN_ANOMALY,EPHEMERIS_TYPE,CLASSIFICATION_TYPE,NORAD_CAT_ID,ELEMENT_SET_NO,REV_AT_EPOCH,BSTAR,MEAN_MOTION_DOT,MEAN_MOTION_DDOT
STARLINK-35532,2025-236F,2026-07-05T22:28:22.920960,15.30146566,.00011535,53.1566,274.2784,66.9201,293.1921,0,U,66091,999,4105,.15387401E-2,.45417E-3,0
STARLINK-35527,2025-236G,2026-07-05T20:16:15.045312,15.34328296,.000113,53.1579,273.7164,86.9237,273.1895,0,U,66092,999,4105,.13105011E-2,.4406E-3,0
STARLINK-35500,2025-236H,2026-07-05T23:04:50.910240,15.30142933,.00010732,53.1589,274.4354,116.7776,243.3335,0,U,66093,999,4105,.13820317E-2,.40725E-3,0
STARLINK-35528,2025-236J,2026-07-06T02:03:50.291136,15.30156292,.00016633,53.1581,273.7894,144.5895,215.5217,0,U,66094,999,4107,.9819341E-3,.28797E-3,0
STARLINK-35559,2025-236K,2026-07-05T22:51:11.056320,15.30213454,.00013636,53.1573,274.3785,89.3425,270.7732,0,U,66095,999,4105,.18997876E-2,.56358E-3,0
STARLINK-34386,2025-236L,2026-07-05T22:42:03.102336,15.30158249,.00011293,53.1572,274.3376,96.4107,263.7023,0,U,66096,999,4105,.1108345E-2,.32568E-3,0
STARLINK-35613,2025-236M,2026-07-06T02:02:18.977568,15.30150111,.00013135,53.1587,273.7815,92.5575,267.5576,0,U,66097,999,4107,.10312704E-2,.30261E-3,0
STARLINK-34206,2025-236N,2026-07-05T12:36:19.992096,15.34375063,.00011147,53.1584,275.2758,99.7362,260.3766,0,U,66098,999,4099,.1304827E-2,.43933E-3,0
STARLINK-34460,2025-236P,2026-07-06T04:49:09.500160,15.30158338,.00013403,53.1553,273.0809,73.1786,286.9362,0,U,66099,999,4109,.12377581E-2,.36432E-3,0
STARLINK-35609,2025-236Q,2026-07-05T22:26:24.152064,15.34363549,.00012004,53.1569,273.5655,93.5908,266.5231,0,U,66100,999,4100,.13107453E-2,.44119E-3,0
STARLINK-35595,2025-236R,2026-07-05T22:53:40.589664,15.34351410,.00011418,53.1584,273.6826,78.7726,281.3405,0,U,66101,999,4100,.17265118E-2,.58321E-3,0
STARLINK-35599,2025-236S,2026-07-05T15:40:54.574752,15.34313223,.00013311,53.1583,274.6516,77.5812,282.5339,0,U,66102,999,4096,.12653869E-2,.42501E-3,0
STARLINK-35622,2025-236T,2026-07-05T22:32:28.306464,15.34329946,.00019655,53.1587,273.5925,109.1076,251.0139,0,U,66103,999,4106,.1591471E-2,.5366E-3,0
STARLINK-35452,2025-236U,2026-07-05T12:42:22.351104,15.34336396,.00015149,53.1570,275.3004,63.2379,296.8779,0,U,66104,999,4100,-.88043129E-3,-.29946E-3,0
STARLINK-35561,2025-236V,2026-07-05T23:02:44.407680,15.34370078,.000112,53.1594,273.7184,90.3289,269.7842,0,U,66105,999,4100,.98124582E-3,.32891E-3,0
STARLINK-35584,2025-236W,2026-07-05T15:37:52.467744,15.34332133,.00013422,53.1590,274.6367,77.4447,282.6705,0,U,66106,999,4102,-.2170594E-3,-.7687E-4,0
STARLINK-35593,2025-236X,2026-07-05T12:57:32.725440,15.34333393,.0000366,53.1582,275.3601,7.4859,352.6149,0,U,66107,999,4100,.11048511E-2,.37059E-3,0
STARLINK-35590,2025-236Y,2026-07-05T13:36:57.010464,15.34315141,.00013403,53.1599,275.5302,117.6823,242.4316,0,U,66108,999,4094,-.58872729E-3,-.20161E-3,0
STARLINK-35545,2025-236Z,2026-07-05T22:38:31.411968,15.34370470,.00011061,53.1583,273.6169,107.5665,252.5459,0,U,66109,999,4106,.19419752E-2,.65751E-3,0
STARLINK-35427,2025-236AA,2026-07-05T06:46:26.366304,15.30238601,.000025,53.1580,278.0142,41.2047,318.8972,0,U,66110,999,4094,.10838E-2,.31916E-3,0
STARLINK-35574,2025-236AB,2026-07-05T12:59:37.991616,15.30136513,.00012164,53.1581,276.7911,94.4363,265.6777,0,U,66111,999,4092,-.50013386E-3,-.15113E-3,0
STARLINK-35531,2025-236AC,2026-07-05T23:03:19.573344,15.30142681,.00011626,53.1592,274.4235,118.3843,241.7275,0,U,66112,999,4105,.10636426E-2,.31219E-3,0
STARLINK-35491,2025-236AD,2026-07-05T12:56:35.961504,15.30149648,.00010749,53.1579,276.7740,63.3509,296.7602,0,U,66113,999,4098,-.51369002E-3,-.15518E-3,0
STARLINK-35496,2025-237A,2026-07-06T00:44:51.157824,15.34365101,.00015921,53.1579,208.9136,89.0513,271.0672,0,U,66114,999,4074,.58126887E-3,.19292E-3,0
STARLINK-35428,2025-237B,2026-07-06T01:47:41.512128,15.30208073,.00014131,53.1587,209.8946,108.6276,251.4879,0,U,66115,999,4072,.74135128E-3,.21667E-3,0
STARLINK-35573,2025-237C,2026-07-06T01:00:00.249120,15.34390440,.00019646,53.1581,208.9797,96.7137,263.4089,0,U,66116,999,4074,.27996875E-3,.9091E-4,0
STARLINK-35572,2025-237D,2026-07-05T22:30:27.424224,15.30191801,.00011723,53.1589,210.4596,89.9602,270.1533,0,U,66117,999,4071,.43237867E-3,.12465E-3,0
STARLINK-35468,2025-237E,2026-07-05T08:42:12.408768,15.30224006,.0000826,53.1568,213.2722,74.7657,285.3435,0,U,66118,999,4062,.71667284E-3,.20942E-3,0
STARLINK-35547,2025-237F,2026-07-06T01:48:28.523232,15.34379095,.00011764,53.1582,209.1861,108.7516,251.3615,0,U,66119,999,4074,.43332562E-3,.14283E-3,0
STARLINK-35553,2025-237G,2026-07-06T02:06:33.723648,15.34348873,.00010054,53.1573,208.5581,112.0913,248.0196,0,U,66120,999,4075,.47561932E-3,.15701E-3,0
