[ {"name": "STARLINK-35532", "line1": "1 66091U 25236F   26186.93637640  .00045417  00000+0  15387-2 0  9997", "line2": "2 66091  53.1566 274.2784 0001153  66.9201 293.1921 15.30146566 41052"}, {"name": "STARLINK-35527", "line1": "1 66092U 25236G   26186.84461858  .00044060  00000+0  13105-2 0  9993", "line2": "2 66092  53.1579 273.7164 0001130  86.9237 273.1895 15.34328296 41053"}, {"name": "STARLINK-35500", "line1": "1 66093U 25236H   26186.96170035  .00040725  00000+0  13820-2 0  9999", "line2": "2 66093  53.1589 274.4354 0001073 116.7776 243.3335 15.30142933 41056"}, {"name": "STARLINK-35528", "line1": "1 66094U 25236J   26187.08599874  .00028797  00000+0  98193-3 0  9992", "line2": "2 66094  53.1581 273.7894 0001663 144.5895 215.5217 15.30156292 41071"}, {"name": "STARLINK-35559", "line1": "1 66095U 25236K   26186.95221130  .00056358  00000+0  18998-2 0  9993", "line2": "2 66095  53.1573 274.3785 0001363  89.3425 270.7732 15.30213454 41058"}, {"name": "STARLINK-34386", "line1": "1 66096U 25236L   26186.94586924  .00032568  00000+0  11083-2 0  9993", "line2": "2 66096  53.1572 274.3376 0001129  96.4107 263.7023 15.30158249 41055"}, {"name": "STARLINK-35613", "line1": "1 66097U 25236M   26187.08494187  .00030261  00000+0  10313-2 0  9992", "line2": "2 66097  53.1587 273.7815 0001313  92.5575 267.5576 15.30150111 41071"}, {"name": "STARLINK-34206", "line1": "1 66098U 25236N   26186.52523139  .00043933  00000+0  13048-2 0  9999", "line2": "2 66098  53.1584 275.2758 0001114  99.7362 260.3766 15.34375063 40995"}, {"name": "STARLINK-34460", "line1": "1 66099U 25236P   26187.20080440  .00036432  00000+0  12378-2 0  9990", "line2": "2 66099  53.1553 273.0809 0001340  73.1786 286.9362 15.30158338 41090"}, {"name": "STARLINK-35609", "line1": "1 66100U 25236Q   26186.93500176  .00044119  00000+0  13107-2 0  9997", "line2": "2 66100  53.1569 273.5655 0001200  93.5908 266.5231 15.34363549 41007"}, {"name": "STARLINK-35595", "line1": "1 66101U 25236R   26186.95394201  .00058321  00000+0  17265-2 0  9999", "line2": "2 66101  53.1584 273.6826 0001141  78.7726 281.3405 15.34351410 41005"}, {"name": "STARLINK-35599", "line1": "1 66102U 25236S   26186.65340943  .00042501  00000+0  12654-2 0  9991", "line2": "2 66102  53.1583 274.6516 0001331  77.5812 282.5339 15.34313223 40969"}, {"name": "STARLINK-35622", "line1": "1 66103U 25236T   26186.93921651  .00053660  00000+0  15915-2 0  9995", "line2": "2 66103  53.1587 273.5925 0001965 109.1076 251.0139 15.34329946 41063"}, {"name": "STARLINK-35452", "line1": "1 66104U 25236U   26186.52942536 -.00029946  00000+0 -88043-3 0  9991", "line2": "2 66104  53.1570 275.3004 0001514  63.2379 296.8779 15.34336396 41008"}, {"name": "STARLINK-35561", "line1": "1 66105U 25236V   26186.96023620  .00032891  00000+0  98125-3 0  9997", "line2": "2 66105  53.1594 273.7184 0001120  90.3289 269.7842 15.34370078 41005"}, {"name": "STARLINK-35584", "line1": "1 66106U 25236W   26186.65130171 -.00007687  00000+0 -21706-3 0  9992", "line2": "2 66106  53.1590 274.6367 0001342  77.4447 282.6705 15.34332133 41027"}, {"name": "STARLINK-35593", "line1": "1 66107U 25236X   26186.53996210  .00037059  00000+0  11049-2 0  9996", "line2": "2 66107  53.1582 275.3601 0000366   7.4859 352.6149 15.34333393 41000"}, {"name": "STARLINK-35590", "line1": "1 66108U 25236Y   26186.56732651 -.00020161  00000+0 -58873-3 0  9992", "line2": "2 66108  53.1599 275.5302 0001340 117.6823 242.4316 15.34315141 40942"}, {"name": "STARLINK-35545", "line1": "1 66109U 25236Z   26186.94341912  .00065751  00000+0  19420-2 0  9997", "line2": "2 66109  53.1583 273.6169 0001106 107.5665 252.5459 15.34370470 41068"}, {"name": "STARLINK-35427", "line1": "1 66110U 25236AA  26186.28224961  .00031916  00000+0  10838-2 0  9990", "line2": "2 66110  53.1580 278.0142 0000250  41.2047 318.8972 15.30238601 40941"}, {"name": "STARLINK-35574", "line1": "1 66111U 25236AB  26186.54141194 -.00015113  00000+0 -50013-3 0  9999", "line2": "2 66111  53.1581 276.7911 0001216  94.4363 265.6777 15.30136513 40925"}, {"name": "STARLINK-35531", "line1": "1 66112U 25236AC  26186.96064321  .00031219  00000+0  10636-2 0  9991", "line2": "2 66112  53.1592 274.4235 0001162 118.3843 241.7275 15.30142681 41057"}, {"name": "STARLINK-35491", "line1": "1 66113U 25236AD  26186.53930511 -.00015518  00000+0 -51369-3 0  9993", "line2": "2 66113  53.1579 276.7740 0001074  63.3509 296.7602 15.30149648 40984"}, {"name": "STARLINK-35496", "line1": "1 66114U 25237A   26187.03114766  .00019292  00000+0  58127-3 0  9997", "line2": "2 66114  53.1579 208.9136 0001592  89.0513 271.0672 15.34365101 40741"}, {"name": "STARLINK-35428", "line1": "1 66115U 25237B   26187.07478602  .00021667  00000+0  74135-3 0  9990", "line2": "2 66115  53.1587 209.8946 0001413 108.6276 251.4879 15.30208073 40725"}, {"name": "STARLINK-35573", "line1": "1 66116U 25237C   26187.04166955  .00009091  00000+0  27997-3 0  9994", "line2": "2 66116  53.1581 208.9797 0001964  96.7137 263.4089 15.34390440 40740"}, {"name": "STARLINK-35572", "line1": "1 66117U 25237D   26186.93781741  .00012465  00000+0  43238-3 0  9993", "line2": "2 66117  53.1589 210.4596 0001172  89.9602 270.1533 15.30191801 40718"}, {"name": "STARLINK-35468", "line1": "1 66118U 25237E   26186.36264362  .00020942  00000+0  71667-3 0  9992", "line2": "2 66118  53.1568 213.2722 0000826  74.7657 285.3435 15.30224006 40628"}, {"name": "STARLINK-35547", "line1": "1 66119U 25237F   26187.07533013  .00014283  00000+0  43333-3 0  9994", "line2": "2 66119  53.1582 209.1861 0001176 108.7516 251.3615 15.34379095 40743"}, {"name": "STARLINK-35553", "line1": "1 66120U 25237G   26187.08789032  .00015701  00000+0  47562-3 0  9995", "line2": "2 66120  53.1573 208.5581 0001005 112.0913 248.0196 15.34348873 40755"}]